[ {"spaceTrack": {"CCSDS_OMM_VERS": "2.0", "COMMENT": "GENERATED VIA SPACE-TRACK.ORG API", "CREATION_DATE": "2020-08-23 22:36:09", "ORIGINATOR": "18 SPCS", "OBJECT_NAME": "STARLINK-1469", "OBJECT_ID": "2020-038Y", "CENTER_NAME": "EARTH", "REF_FRAME": "TEME", "TIME_SYSTEM": "UTC", "MEAN_ELEMENT_THEORY": "SGP4", "EPOCH": "2020-08-23 22:00:00.999936", "MEAN_MOTION": 15.76662642, "ECCENTRICITY": 0.0001077, "INCLINATION": 52.9985, "RA_OF_ASC_NODE": 305.5271, "ARG_OF_PERICENTER": 63.6387, "MEAN_ANOMALY": 68.2682, "EPHEMERIS_TYPE": 0, "CLASSIFICATION_TYPE": "U", "NORAD_CAT_ID": 45752, "ELEMENT_SET_NO": 999, "REV_AT_EPOCH": 1251, "BSTAR": 0.0071463, "MEAN_MOTION_DOT": 0.01304369, "MEAN_MOTION_DDOT": 0, "SEMIMAJOR_AXIS": 6718.041, "PERIOD": 91.332, "APOAPSIS": 340.629, "PERIAPSIS": 339.182, "OBJECT_TYPE": "PAYLOAD", "RCS_SIZE": "LARGE", "COUNTRY_CODE": "US", "LAUNCH_DATE": "2020-06-13", "SITE": "AFETR", "DECAY_DATE": null, "DECAYED": 0, "FILE": 2807262, "GP_ID": 159985895, "TLE_LINE0": "0 STARLINK-1469", "TLE_LINE1": "1 45752U 20038Y   20236.91667824  .01304369  00000-0  71463-2 0  9991", "TLE_LINE2": "2 45752  52.9985 305.5271 0001077  63.6387  68.2682 15.76662642 12510"}, "version": "v1.0", "launch": "5eb87d46ffd86e000604b389", "longitude": 137.75616896761628, "latitude": 25.468517535018318, "height_km": 340.4461319023585, "velocity_kms": 7.708109994772305, "id": "5eed7716096e5900069857f0"}, {"spaceTrack": {"CCSDS_OMM_VERS": "2.0", "COMMENT": "GENERATED VIA SPACE-TRACK.ORG API", "CREATION_DATE": "2020-08-23 22:46:10", "ORIGINATOR": "18 SPCS", "OBJECT_NAME": "STARLINK-1493", "OBJECT_ID": "2020-038AF", "CENTER_NAME": "EARTH", "REF_FRAME": "TEME", "TIME_SYSTEM": "UTC", "MEAN_ELEMENT_THEORY": "SGP4", "EPOCH": "2020-08-23 22:00:00.999936", "MEAN_MOTION": 15.57401647, "ECCENTRICITY": 0.0001901, "INCLINATION": 52.9982, "RA_OF_ASC_NODE": 305.8954, "ARG_OF_PERICENTER": 308.704, "MEAN_ANOMALY": 5.4677, "EPHEMERIS_TYPE": 0, "CLASSIFICATION_TYPE": "U", "NORAD_CAT_ID": 45759, "ELEMENT_SET_NO": 999, "REV_AT_EPOCH": 1232, "BSTAR": -0.015675, "MEAN_MOTION_DOT": -0.01063982, "MEAN_MOTION_DDOT": 0, "SEMIMAJOR_AXIS": 6773.317, "PERIOD": 92.461, "APOAPSIS": 396.469, "PERIAPSIS": 393.894, "OBJECT_TYPE": "PAYLOAD", "RCS_SIZE": "LARGE", "COUNTRY_CODE": "US", "LAUNCH_DATE": "2020-06-13", "SITE": "AFETR", "DECAY_DATE": null, "DECAYED": 0, "FILE": 2807330, "GP_ID": 159987787, "TLE_LINE0": "0 STARLINK-1493", "TLE_LINE1": "1 45759U 20038AF  20236.91667824 -.01063982  00000-0 -15675-1 0  9995", "TLE_LINE2": "2 45759  52.9982 305.8954 0001901 308.7040   5.4677 15.57401647 12321"}, "version": "v1.0", "launch": "5eb87d46ffd86e000604b389", "longitude": -43.763522000030285, "latitude": -27.351515518859337, "height_km": 402.48041508295773, "velocity_kms": 7.669725076632112, "id": "5eed7716096e5900069857f1"}, {"spaceTrack": {"CCSDS_OMM_VERS": "2.0", "COMMENT": "GENERATED VIA SPACE-TRACK.ORG API", "CREATION_DATE": "2020-08-23 22:36:09", "ORIGINATOR": "18 SPCS", "OBJECT_NAME": "STARLINK-1478", "OBJECT_ID": "2020-038AB", "CENTER_NAME": "EARTH", "REF_FRAME": "TEME", "TIME_SYSTEM": "UTC", "MEAN_ELEMENT_THEORY": "SGP4", "EPOCH": "2020-08-23 22:00:00.999936", "MEAN_MOTION": 15.56128361, "ECCENTRICITY": 9.11e-05, "INCLINATION": 52.9985, "RA_OF_ASC_NODE": 305.8232, "ARG_OF_PERICENTER": 59.7754, "MEAN_ANOMALY": 283.1068, "EPHEMERIS_TYPE": 0, "CLASSIFICATION_TYPE": "U", "NORAD_CAT_ID": 45755, "ELEMENT_SET_NO": 999, "REV_AT_EPOCH": 1251, "BSTAR": -0.016815, "MEAN_MOTION_DOT": -0.01085588, "MEAN_MOTION_DDOT": 0, "SEMIMAJOR_AXIS": 6777.011, "PERIOD": 92.537, "APOAPSIS": 399.493, "PERIAPSIS": 398.259, "OBJECT_TYPE": "PAYLOAD", "RCS_SIZE": "LARGE", "COUNTRY_CODE": "US", "LAUNCH_DATE": "2020-06-13", "SITE": "AFETR", "DECAY_DATE": null, "DECAYED": 0, "FILE": 2807266, "GP_ID": 159985903, "TLE_LINE0": "0 STARLINK-1478", "TLE_LINE1": "1 45755U 20038AB  20236.91667824 -.01085588  00000-0 -16815-1 0  9994", "TLE_LINE2": "2 45755  52.9985 305.8232 0000911  59.7754 283.1068 15.56128361 12512"}, "version": "v1.0", "launch": "5eb87d46ffd86e000604b389", "longitude": -24.988267981654403, "latitude": -5.2675260836066435, "height_km": 400.80659061366623, "velocity_kms": 7.671055524810503, "id": "5eed7716096e5900069857f2"}, {"spaceTrack": {"CCSDS_OMM_VERS": "2.0", "COMMENT": "GENERATED VIA SPACE-TRACK.ORG API", "CREATION_DATE": "2020-08-23 14:56:10", "ORIGINATOR": "18 SPCS", "OBJECT_NAME": "STARLINK-1439", "OBJECT_ID": "2020-035BM", "CENTER_NAME": "EARTH", "REF_FRAME": "TEME", "TIME_SYSTEM": "UTC", "MEAN_ELEMENT_THEORY": "SGP4", "EPOCH": "2020-08-23 14:00:01.999872", "MEAN_MOTION": 15.62799483, "ECCENTRICITY": 0.0008077, "INCLINATION": 52.9996, "RA_OF_ASC_NODE": 131.014, "ARG_OF_PERICENTER": 22.6343, "MEAN_ANOMALY": 12.1411, "EPHEMERIS_TYPE": 0, "CLASSIFICATION_TYPE": "U", "NORAD_CAT_ID": 45716, "ELEMENT_SET_NO": 999, "REV_AT_EPOCH": 1396, "BSTAR": -0.00056047, "MEAN_MOTION_DOT": -0.0005172, "MEAN_MOTION_DDOT": 0, "SEMIMAJOR_AXIS": 6757.711, "PERIOD": 92.142, "APOAPSIS": 385.035, "PERIAPSIS": 374.118, "OBJECT_TYPE": "PAYLOAD", "RCS_SIZE": "LARGE", "COUNTRY_CODE": "US", "LAUNCH_DATE": "2020-06-04", "SITE": "AFETR", "DECAY_DATE": null, "DECAYED": 0, "FILE": 2807110, "GP_ID": 159941142, "TLE_LINE0": "0 STARLINK-1439", "TLE_LINE1": "1 45716U 20035BM  20236.58335648 -.00051720  00000-0 -56047-3 0  9990", "TLE_LINE2": "2 45716  52.9996 131.0140 0008077  22.6343  12.1411 15.62799483 13960"}, "version": "v1.0", "launch": "5eb87d45ffd86e000604b387", "longitude": -59.70825521756108, "latitude": 41.89339886972368, "height_km": 384.57125338114383, "velocity_kms": 7.684103551400867, "id": "5eed7716096e5900069857f3"}, {"spaceTrack": {"CCSDS_OMM_VERS": "2.0", "COMMENT": "GENERATED VIA SPACE-TRACK.ORG API", "CREATION_DATE": "2020-08-23 22:46:10", "ORIGINATOR": "18 SPCS", "OBJECT_NAME": "STARLINK-1412", "OBJECT_ID": "2020-035BC", "CENTER_NAME": "EARTH", "REF_FRAME": "TEME", "TIME_SYSTEM": "UTC", "MEAN_ELEMENT_THEORY": "SGP4", "EPOCH": "2020-08-23 22:00:00.999936", "MEAN_MOTION": 15.61201823, "ECCENTRICITY": 0.0003331, "INCLINATION": 52.9977, "RA_OF_ASC_NODE": 133.226, "ARG_OF_PERICENTER": 252.6009, "MEAN_ANOMALY": 166.9605, "EPHEMERIS_TYPE": 0, "CLASSIFICATION_TYPE": "U", "NORAD_CAT_ID": 45707, "ELEMENT_SET_NO": 999, "REV_AT_EPOCH": 1356, "BSTAR": 0.027748, "MEAN_MOTION_DOT": 0.02718347, "MEAN_MOTION_DDOT": 0, "SEMIMAJOR_AXIS": 6762.321, "PERIOD": 92.236, "APOAPSIS": 386.438, "PERIAPSIS": 381.933, "OBJECT_TYPE": "PAYLOAD", "RCS_SIZE": "LARGE", "COUNTRY_CODE": "US", "LAUNCH_DATE": "2020-06-04", "SITE": "AFETR", "DECAY_DATE": null, "DECAYED": 0, "FILE": 2807308, "GP_ID": 159987517, "TLE_LINE0": "0 STARLINK-1412", "TLE_LINE1": "1 45707U 20035BC  20236.91667824  .02718347  00000-0  27748-1 0  9990", "TLE_LINE2": "2 45707  52.9977 133.2260 0003331 252.6009 166.9605 15.61201823 13562"}, "version": "v1.0", "launch": "5eb87d45ffd86e000604b387", "longitude": -132.66841241349854, "latitude": 49.39822754823788, "height_km": 391.18956093810357, "velocity_kms": 7.680329654923004, "id": "5eed7716096e5900069857f4"}, {"spaceTrack": {"CCSDS_OMM_VERS": "2.0", "COMMENT": "GENERATED VIA SPACE-TRACK.ORG API", "CREATION_DATE": "2020-08-23 22:46:10", "ORIGINATOR": "18 SPCS", "OBJECT_NAME": "STARLINK-1461", "OBJECT_ID": "2020-038A", "CENTER_NAME": "EARTH", "REF_FRAME": "TEME", "TIME_SYSTEM": "UTC", "MEAN_ELEMENT_THEORY": "SGP4", "EPOCH": "2020-08-23 22:00:00.999936", "MEAN_MOTION": 15.05618438, "ECCENTRICITY": 0.0001225, "INCLINATION": 53.0086, "RA_OF_ASC_NODE": 321.643, "ARG_OF_PERICENTER": 79.9876, "MEAN_ANOMALY": 321.8526, "EPHEMERIS_TYPE": 0, "CLASSIFICATION_TYPE": "U", "NORAD_CAT_ID": 45730, "ELEMENT_SET_NO": 999, "REV_AT_EPOCH": 1229, "BSTAR": -0.0024566, "MEAN_MOTION_DOT": -0.00035928, "MEAN_MOTION_DDOT": 0, "SEMIMAJOR_AXIS": 6927.744, "PERIOD": 95.641, "APOAPSIS": 550.458, "PERIAPSIS": 548.761, "OBJECT_TYPE": "PAYLOAD", "RCS_SIZE": "LARGE", "COUNTRY_CODE": "US", "LAUNCH_DATE": "2020-06-13", "SITE": "AFETR", "DECAY_DATE": null, "DECAYED": 0, "FILE": 2807330, "GP_ID": 159987786, "TLE_LINE0": "0 STARLINK-1461", "TLE_LINE1": "1 45730U 20038A   20236.91667824 -.00035928  00000-0 -24566-2 0  9992", "TLE_LINE2": "2 45730  53.0086 321.6430 0001225  79.9876 321.8526 15.05618438 12290"}, "version": "v1.0", "launch": "5eb87d46ffd86e000604b389", "longitude": 21.94912748229401, "latitude": 31.32957261270771, "height_km": 550.8793799004643, "velocity_kms": 7.5908992839451885, "id": "5eed7716096e5900069857f5"}, {"spaceTrack": {"CCSDS_OMM_VERS": "2.0", "COMMENT": "GENERATED VIA SPACE-TRACK.ORG API", "CREATION_DATE": "2020-08-23 14:46:10", "ORIGINATOR": "18 SPCS", "OBJECT_NAME": "STARLINK-1468", "OBJECT_ID": "2020-038E", "CENTER_NAME": "EARTH", "REF_FRAME": "TEME", "TIME_SYSTEM": "UTC", "MEAN_ELEMENT_THEORY": "SGP4", "EPOCH": "2020-08-23 14:00:01.999872", "MEAN_MOTION": 15.05578986, "ECCENTRICITY": 7.49e-05, "INCLINATION": 52.9868, "RA_OF_ASC_NODE": 323.2462, "ARG_OF_PERICENTER": 107.22, "MEAN_ANOMALY": 322.9417, "EPHEMERIS_TYPE": 0, "CLASSIFICATION_TYPE": "U", "NORAD_CAT_ID": 45734, "ELEMENT_SET_NO": 999, "REV_AT_EPOCH": 1223, "BSTAR": 0.00019789, "MEAN_MOTION_DOT": 2.605e-05, "MEAN_MOTION_DDOT": 0, "SEMIMAJOR_AXIS": 6927.865, "PERIOD": 95.644, "APOAPSIS": 550.249, "PERIAPSIS": 549.212, "OBJECT_TYPE": "PAYLOAD", "RCS_SIZE": "LARGE", "COUNTRY_CODE": "US", "LAUNCH_DATE": "2020-06-13", "SITE": "AFETR", "DECAY_DATE": null, "DECAYED": 0, "FILE": 2807061, "GP_ID": 159940169, "TLE_LINE0": "0 STARLINK-1468", "TLE_LINE1": "1 45734U 20038E   20236.58335648  .00002605  00000-0  19789-3 0  9991", "TLE_LINE2": "2 45734  52.9868 323.2462 0000749 107.2200 322.9417 15.05578986 12237"}, "version": "v1.0", "launch": "5eb87d46ffd86e000604b389", "longitude": 63.05767837523652, "latitude": 51.06504106691514, "height_km": 555.3520570591427, "velocity_kms": 7.590394400686663, "id": "5eed7716096e5900069857f6"}]